CCSDS_OMM_VERS = 2.0
CREATION_DATE  = 
ORIGINATOR     = 

OBJECT_NAME    = SL-14 R/B
OBJECT_ID      = 1986-046B
CENTER_NAME    = EARTH
REF_FRAME      = TEME
TIME_SYSTEM    = UTC
MEAN_ELEMENT_THEORY = SGP/SGP4

EPOCH          = 2026-02-06T16:32:12.437376
MEAN_MOTION    = 14.85560379
ECCENTRICITY   = .0022374
INCLINATION    = 82.4818
RA_OF_ASC_NODE = 109.4773
ARG_OF_PERICENTER = 333.9709
MEAN_ANOMALY   = 26.0380

EPHEMERIS_TYPE = 0
CLASSIFICATION_TYPE = U
NORAD_CAT_ID   = 16792
ELEMENT_SET_NO = 999
REV_AT_EPOCH   = 12180
BSTAR          = .68769E-4
MEAN_MOTION_DOT = .621E-5
MEAN_MOTION_DDOT = 0

CCSDS_OMM_VERS = 2.0
CREATION_DATE  = 
ORIGINATOR     = 

OBJECT_NAME    = SL-14 R/B
OBJECT_ID      = 1986-055B
CENTER_NAME    = EARTH
REF_FRAME      = TEME
TIME_SYSTEM    = UTC
MEAN_ELEMENT_THEORY = SGP/SGP4

EPOCH          = 2026-02-06T19:56:48.755040
MEAN_MOTION    = 14.85609873
ECCENTRICITY   = .0020365
INCLINATION    = 82.5232
RA_OF_ASC_NODE = 155.6688
ARG_OF_PERICENTER = 75.6163
MEAN_ANOMALY   = 43.1775

EPHEMERIS_TYPE = 0
CLASSIFICATION_TYPE = U
NORAD_CAT_ID   = 16882
ELEMENT_SET_NO = 999
REV_AT_EPOCH   = 11478
BSTAR          = .8569E-4
MEAN_MOTION_DOT = .769E-5
MEAN_MOTION_DDOT = 0

CCSDS_OMM_VERS = 2.0
CREATION_DATE  = 
ORIGINATOR     = 

OBJECT_NAME    = AJISAI (EGS)
OBJECT_ID      = 1986-061A
CENTER_NAME    = EARTH
REF_FRAME      = TEME
TIME_SYSTEM    = UTC
MEAN_ELEMENT_THEORY = SGP/SGP4

EPOCH          = 2026-02-06T19:20:09.264192
MEAN_MOTION    = 12.44515317
ECCENTRICITY   = .0011239
INCLINATION    = 50.0069
RA_OF_ASC_NODE = 188.3156
ARG_OF_PERICENTER = 207.4745
MEAN_ANOMALY   = 259.2622

EPHEMERIS_TYPE = 0
CLASSIFICATION_TYPE = U
NORAD_CAT_ID   = 16908
ELEMENT_SET_NO = 999
REV_AT_EPOCH   = 46415
BSTAR          = .4987E-5
MEAN_MOTION_DOT = -.97E-6
MEAN_MOTION_DDOT = 0

CCSDS_OMM_VERS = 2.0
CREATION_DATE  = 
ORIGINATOR     = 

OBJECT_NAME    = COSMOS 1812
OBJECT_ID      = 1987-003A
CENTER_NAME    = EARTH
REF_FRAME      = TEME
TIME_SYSTEM    = UTC
MEAN_ELEMENT_THEORY = SGP/SGP4

EPOCH          = 2026-02-06T20:34:18.823584
MEAN_MOTION    = 15.94050653
ECCENTRICITY   = .0000971
INCLINATION    = 82.4778
RA_OF_ASC_NODE = 230.5559
ARG_OF_PERICENTER = 326.7157
MEAN_ANOMALY   = 33.4056

EPHEMERIS_TYPE = 0
CLASSIFICATION_TYPE = U
NORAD_CAT_ID   = 17295
ELEMENT_SET_NO = 999
REV_AT_EPOCH   = 13953
BSTAR          = .81295E-3
MEAN_MOTION_DOT = .29784E-2
MEAN_MOTION_DDOT = .32657E-4

CCSDS_OMM_VERS = 2.0
CREATION_DATE  = 
ORIGINATOR     = 

OBJECT_NAME    = SL-14 R/B
OBJECT_ID      = 1987-024B
CENTER_NAME    = EARTH
REF_FRAME      = TEME
TIME_SYSTEM    = UTC
MEAN_ELEMENT_THEORY = SGP/SGP4

EPOCH          = 2026-02-06T15:59:37.708224
MEAN_MOTION    = 14.86102255
ECCENTRICITY   = .0018368
INCLINATION    = 82.5294
RA_OF_ASC_NODE = 121.9207
ARG_OF_PERICENTER = 8.4394
MEAN_ANOMALY   = 351.7127

EPHEMERIS_TYPE = 0
CLASSIFICATION_TYPE = U
NORAD_CAT_ID   = 17567
ELEMENT_SET_NO = 999
REV_AT_EPOCH   = 8352
BSTAR          = .71296E-4
MEAN_MOTION_DOT = .65E-5
MEAN_MOTION_DDOT = 0

CCSDS_OMM_VERS = 2.0
CREATION_DATE  = 
ORIGINATOR     = 

OBJECT_NAME    = COSMOS 1833
OBJECT_ID      = 1987-027A
CENTER_NAME    = EARTH
REF_FRAME      = TEME
TIME_SYSTEM    = UTC
MEAN_ELEMENT_THEORY = SGP/SGP4

EPOCH          = 2026-02-06T10:18:48.749760
MEAN_MOTION    = 14.13055988
ECCENTRICITY   = .00248686
INCLINATION    = 70.9210
RA_OF_ASC_NODE = 31.7158
ARG_OF_PERICENTER = 256.3065
MEAN_ANOMALY   = 103.5287

EPHEMERIS_TYPE = 0
CLASSIFICATION_TYPE = U
NORAD_CAT_ID   = 17589
ELEMENT_SET_NO = 999
REV_AT_EPOCH   = 590
BSTAR          = .64882435E-4
MEAN_MOTION_DOT = .73E-6
MEAN_MOTION_DDOT = 0

CCSDS_OMM_VERS = 2.0
CREATION_DATE  = 
ORIGINATOR     = 

OBJECT_NAME    = SL-16 R/B
OBJECT_ID      = 1987-027B
CENTER_NAME    = EARTH
REF_FRAME      = TEME
TIME_SYSTEM    = UTC
MEAN_ELEMENT_THEORY = SGP/SGP4

EPOCH          = 2026-02-06T20:19:27.202368
MEAN_MOTION    = 14.17163783
ECCENTRICITY   = .0005194
INCLINATION    = 71.0050
RA_OF_ASC_NODE = 341.4864
ARG_OF_PERICENTER = 195.8966
MEAN_ANOMALY   = 164.1995

EPHEMERIS_TYPE = 0
CLASSIFICATION_TYPE = U
NORAD_CAT_ID   = 17590
ELEMENT_SET_NO = 999
REV_AT_EPOCH   = 1097
BSTAR          = -.40176E-4
MEAN_MOTION_DOT = -.129E-5
MEAN_MOTION_DDOT = 0

CCSDS_OMM_VERS = 2.0
CREATION_DATE  = 
ORIGINATOR     = 

OBJECT_NAME    = SL-14 R/B
OBJECT_ID      = 1987-038B
CENTER_NAME    = EARTH
REF_FRAME      = TEME
TIME_SYSTEM    = UTC
MEAN_ELEMENT_THEORY = SGP/SGP4

EPOCH          = 2026-02-06T20:20:22.633152
MEAN_MOTION    = 14.85338706
ECCENTRICITY   = .0017687
INCLINATION    = 82.5043
RA_OF_ASC_NODE = 325.8548
ARG_OF_PERICENTER = 266.6831
MEAN_ANOMALY   = 93.2362

EPHEMERIS_TYPE = 0
CLASSIFICATION_TYPE = U
NORAD_CAT_ID   = 17912
ELEMENT_SET_NO = 999
REV_AT_EPOCH   = 7465
BSTAR          = .85049E-4
MEAN_MOTION_DOT = .757E-5
MEAN_MOTION_DDOT = 0

CCSDS_OMM_VERS = 2.0
CREATION_DATE  = 
ORIGINATOR     = 

OBJECT_NAME    = COSMOS 1844
OBJECT_ID      = 1987-041A
CENTER_NAME    = EARTH
REF_FRAME      = TEME
TIME_SYSTEM    = UTC
MEAN_ELEMENT_THEORY = SGP/SGP4

EPOCH          = 2026-02-06T15:20:43.912896
MEAN_MOTION    = 14.14538805
ECCENTRICITY   = .0028823
INCLINATION    = 70.8981
RA_OF_ASC_NODE = 99.6724
ARG_OF_PERICENTER = 67.8471
MEAN_ANOMALY   = 292.5705

EPHEMERIS_TYPE = 0
CLASSIFICATION_TYPE = U
NORAD_CAT_ID   = 17973
ELEMENT_SET_NO = 999
REV_AT_EPOCH   = 99919
BSTAR          = .21227E-3
MEAN_MOTION_DOT = .361E-5
MEAN_MOTION_DDOT = 0

CCSDS_OMM_VERS = 2.0
CREATION_DATE  = 
ORIGINATOR     = 

OBJECT_NAME    = SL-14 R/B
OBJECT_ID      = 1987-055B
CENTER_NAME    = EARTH
REF_FRAME      = TEME
TIME_SYSTEM    = UTC
MEAN_ELEMENT_THEORY = SGP/SGP4

EPOCH          = 2026-02-06T08:35:56.922144
MEAN_MOTION    = 14.85590437
ECCENTRICITY   = .00221219
INCLINATION    = 82.4993
RA_OF_ASC_NODE = 18.5565
ARG_OF_PERICENTER = 115.2671
MEAN_ANOMALY   = 245.0841

EPHEMERIS_TYPE = 0
CLASSIFICATION_TYPE = U
NORAD_CAT_ID   = 18153
ELEMENT_SET_NO = 999
REV_AT_EPOCH   = 6528
BSTAR          = .83564235E-4
MEAN_MOTION_DOT = .75E-5
MEAN_MOTION_DDOT = 0

CCSDS_OMM_VERS = 2.0
CREATION_DATE  = 
ORIGINATOR     = 

OBJECT_NAME    = COSMOS 1867
OBJECT_ID      = 1987-060A
CENTER_NAME    = EARTH
REF_FRAME      = TEME
TIME_SYSTEM    = UTC
MEAN_ELEMENT_THEORY = SGP/SGP4

EPOCH          = 2026-02-06T00:05:03.486912
MEAN_MOTION    = 14.31497768
ECCENTRICITY   = .00140844
INCLINATION    = 65.0107
RA_OF_ASC_NODE = 35.4392
ARG_OF_PERICENTER = 276.2768
MEAN_ANOMALY   = 83.6712

EPHEMERIS_TYPE = 0
CLASSIFICATION_TYPE = U
NORAD_CAT_ID   = 18187
ELEMENT_SET_NO = 999
REV_AT_EPOCH   = 1540
BSTAR          = .30771277E-4
MEAN_MOTION_DOT = -.18E-6
MEAN_MOTION_DDOT = 0

CCSDS_OMM_VERS = 2.0
CREATION_DATE  = 
ORIGINATOR     = 

OBJECT_NAME    = SL-14 R/B
OBJECT_ID      = 1988-001B
CENTER_NAME    = EARTH
REF_FRAME      = TEME
TIME_SYSTEM    = UTC
MEAN_ELEMENT_THEORY = SGP/SGP4

EPOCH          = 2026-02-06T14:54:04.994496
MEAN_MOTION    = 14.85490639
ECCENTRICITY   = .0017668
INCLINATION    = 82.5105
RA_OF_ASC_NODE = 224.5832
ARG_OF_PERICENTER = 345.9404
MEAN_ANOMALY   = 14.1318

EPHEMERIS_TYPE = 0
CLASSIFICATION_TYPE = U
NORAD_CAT_ID   = 18749
ELEMENT_SET_NO = 999
REV_AT_EPOCH   = 3741
BSTAR          = .70444E-4
MEAN_MOTION_DOT = .633E-5
MEAN_MOTION_DDOT = 0

